DUCHIFAT-1              
1 40021U 14033M   26140.08608870  .00064942  00000+0  82604-3 0  9995
2 40021  98.0490 195.4268 0006263 168.4581 191.6819 15.59142143651365
NANOSATC-BR1            
1 40024U 14033Q   26140.03540775  .00013156  00000+0  44910-3 0  9991
2 40024  98.0738 169.9486 0001648 278.4852  81.6200 15.30471492649670
QB50P1                  
1 40025U 14033R   26140.00371372  .00005389  00000+0  27037-3 0  9994
2 40025  98.0974 149.1842 0007643 333.1747  26.9089 15.17775159648759
DTUSAT-2                
1 40030U 14033W   26139.96599925  .00004369  00000+0  24052-3 0  9990
2 40030  98.0868 135.9119 0007147 345.0039  15.0978 15.14608485648415
QB50P2                  
1 40032U 14033Y   26140.22713189  .00004149  00000+0  22771-3 0  9995
2 40032  98.0754 135.3773 0005650 270.8259  89.2324 15.14757650648436
PERSEUS-M1              
1 40039U 14033AF  26140.27066840  .00001176  00000+0  11148-3 0  9995
2 40039  97.9635  83.9492 0012619  36.7240 323.4843 14.95528553646463
POLYITAN-1              
1 40042U 14033AJ  26140.30624183  .00012892  00000+0  41719-3 0  9997
2 40042  98.0962 163.9521 0005797 233.5703 126.5003 15.32192125649326
TIGRISAT                
1 40043U 14033AK  26140.15433426  .00001389  00000+0  16551-3 0  9994
2 40043  97.7800 290.8168 0049856 165.0739 195.1962 14.85027277641468
CANX-4                  
1 40055U 14034C   26140.18542655  .00000564  00000+0  79736-4 0  9995
2 40055  98.3156  14.4664 0014119 100.0392 260.2413 14.81206191640386
CANX-5                  
1 40056U 14034D   26140.18418306  .00000569  00000+0  80344-4 0  9993
2 40056  98.3159  14.5070 0014113 100.2391 260.0413 14.81223276631197
GONETS-M 10             
1 40063U 14036C   26140.30020277  .00000014  00000+0  31258-4 0  9998
2 40063  82.5099 325.0009 0021463 200.8001 159.2207 12.42944765538785
METEOR-M 2              
1 40069U 14037A   26140.27105623  .00000465  00000+0  23202-3 0  9999
2 40069  98.5104 117.0016 0006829 111.9790 248.2114 14.21454244615350
DX1                     
1 40071U 14037C   26140.28957693  .00000974  00000+0  10779-3 0  9995
2 40071  98.3856 100.3045 0007545  14.2338 345.9089 14.89885526641957
UKUBE-1                 
1 40074U 14037F   26140.26500294  .00005626  00000+0  32261-3 0  9996
2 40074  98.4245 140.6158 0000528 135.5990 224.5281 15.13049410644333
GAOFEN-2                
1 40118U 14049A   26140.27062067  .00000649  00000+0  90993-4 0  9997
2 40118  98.0118 204.5023 0006620 334.9026  25.1863 14.80866368635100
BRITE-PL2 (HEWELIUSZ)   
1 40119U 14049B   26140.25347368  .00001557  00000+0  14965-3 0  9999
2 40119  97.9068 252.0453 0013711 196.6097 163.4675 14.94474540637277
CBERS 4                 
1 40336U 14079A   26140.29575711  .00000004  00000+0  16197-4 0  9998
2 40336  98.3543 197.9994 0002101  96.6997 263.4429 14.35500146599954
SMAP                    
1 40376U 15003A   26140.25053626  .00000246  00000+0  56605-4 0  9998
2 40376  98.1282 147.7411 0001197  70.9540 289.1792 14.63411163603535
GONETS-M 11             
1 40552U 15020A   26140.31718248  .00000072  00000+0  45015-3 0  9997
2 40552  82.4888  48.3563 0017391  63.4333 296.8527 12.42876073505276
GONETS-M 12             
1 40553U 15020B   26140.21049356 -.00000029  00000+0 -28268-3 0  9999
2 40553  82.4921  49.5391 0016337  49.4410 310.8089 12.42889960505253
GONETS-M 13             
1 40554U 15020C   26140.26400015  .00000011  00000+0  94706-5 0  9999
2 40554  82.4884  48.1289 0014780  35.3932 324.8125 12.42868942505237
DMC3-FM1                
1 40715U 15032A   26140.25558138  .00000764  00000+0  93962-4 0  9997
2 40715  97.6490   6.5213 0006513 133.3339 226.8421 14.85704098585763
DMC3-FM2                
1 40716U 15032B   26140.27773069  .00000210  00000+0  30070-4 0  9999
2 40716  97.6547   8.0971 0006841 138.3870 221.7867 14.85708270585768
DMC3-FM3                
1 40717U 15032C   26140.23351862 -.00000231  00000+0 -20656-4 0  9993
2 40717  97.6597   9.7897 0005990 137.4299 222.7382 14.85695641585768
CARBONITE 1 (CBNT-1)    
1 40718U 15032D   26140.25916580  .00001205  00000+0  15243-3 0  9995
2 40718  97.6498 319.4988 0015285  31.7507 328.4626 14.83491190585202
LILACSAT-2              
1 40908U 15049K   26140.33554762  .00013231  00000+0  23394-3 0  9991
2 40908  97.4675 176.1350 0006782  12.6833 347.4587 15.50436012591437
