OBJECT_NAME,OBJECT_ID,EPOCH,MEAN_MOTION,ECCENTRICITY,INCLINATION,RA_OF_ASC_NODE,ARG_OF_PERICENTER,MEAN_ANOMALY,EPHEMERIS_TYPE,CLASSIFICATION_TYPE,NORAD_CAT_ID,ELEMENT_SET_NO,REV_AT_EPOCH,BSTAR,MEAN_MOTION_DOT,MEAN_MOTION_DDOT
DUCHIFAT-1,2014-033M,2026-05-20T02:03:58.063680,15.59142143,.00062637,98.0490,195.4268,168.4581,191.6819,0,U,40021,999,65136,.82603908E-3,.64942E-3,0
NANOSATC-BR1,2014-033Q,2026-05-20T00:50:59.229600,15.30471492,.00016485,98.0738,169.9486,278.4852,81.6200,0,U,40024,999,64967,.44910049E-3,.13156E-3,0
QB50P1,2014-033R,2026-05-20T00:05:20.865408,15.17775159,.00076437,98.0974,149.1842,333.1747,26.9089,0,U,40025,999,64875,.27036882E-3,.5389E-4,0
DTUSAT-2,2014-033W,2026-05-19T23:11:02.335200,15.14608485,.00071474,98.0868,135.9119,345.0039,15.0978,0,U,40030,999,64841,.24052108E-3,.4369E-4,0
QB50P2,2014-033Y,2026-05-20T05:27:04.195296,15.14757650,.00056505,98.0754,135.3773,270.8259,89.2324,0,U,40032,999,64843,.22771451E-3,.4149E-4,0
PERSEUS-M1,2014-033AF,2026-05-20T06:29:45.749760,14.95528553,.00126192,97.9635,83.9492,36.7240,323.4843,0,U,40039,999,64646,.11148379E-3,.1176E-4,0
POLYITAN-1,2014-033AJ,2026-05-20T07:20:59.294112,15.32192125,.00057976,98.0962,163.9521,233.5703,126.5003,0,U,40042,999,64932,.41718928E-3,.12892E-3,0
TIGRISAT,2014-033AK,2026-05-20T03:42:14.480064,14.85027277,.00498562,97.7800,290.8168,165.0739,195.1962,0,U,40043,999,64146,.1655112E-3,.1389E-4,0
CANX-4,2014-034C,2026-05-20T04:27:00.853920,14.81206191,.00141199,98.3156,14.4664,100.0392,260.2413,0,U,40055,999,64038,.79736497E-4,.564E-5,0
CANX-5,2014-034D,2026-05-20T04:25:13.416384,14.81223276,.00141135,98.3159,14.5070,100.2391,260.0413,0,U,40056,999,63119,.803444E-4,.569E-5,0
GONETS-M 10,2014-036C,2026-05-20T07:12:17.519328,12.42944765,.00214639,82.5099,325.0009,200.8001,159.2207,0,U,40063,999,53878,.31258361E-4,.14E-6,0
METEOR-M 2,2014-037A,2026-05-20T06:30:19.258272,14.21454244,.00068291,98.5104,117.0016,111.9790,248.2114,0,U,40069,999,61535,.23202426E-3,.465E-5,0
DX1,2014-037C,2026-05-20T06:56:59.446752,14.89885526,.00075452,98.3856,100.3045,14.2338,345.9089,0,U,40071,999,64195,.10778997E-3,.974E-5,0
UKUBE-1,2014-037F,2026-05-20T06:21:36.254016,15.13049410,.00005287,98.4245,140.6158,135.5990,224.5281,0,U,40074,999,64433,.32261129E-3,.5626E-4,0
GAOFEN-2,2014-049A,2026-05-20T06:29:41.625888,14.80866368,.00066202,98.0118,204.5023,334.9026,25.1863,0,U,40118,999,63510,.90993139E-4,.649E-5,0
BRITE-PL2 (HEWELIUSZ),2014-049B,2026-05-20T06:05:00.125952,14.94474540,.00137112,97.9068,252.0453,196.6097,163.4675,0,U,40119,999,63727,.14965493E-3,.1557E-4,0
CBERS 4,2014-079A,2026-05-20T07:05:53.414304,14.35500146,.00021017,98.3543,197.9994,96.6997,263.4429,0,U,40336,999,59995,.16196768E-4,.4E-7,0
SMAP,2015-003A,2026-05-20T06:00:46.332864,14.63411163,.00011979,98.1282,147.7411,70.9540,289.1792,0,U,40376,999,60353,.56604924E-4,.246E-5,0
GONETS-M 11,2015-020A,2026-05-20T07:36:44.566272,12.42876073,.00173915,82.4888,48.3563,63.4333,296.8527,0,U,40552,999,50527,.45014552E-3,.72E-6,0
GONETS-M 12,2015-020B,2026-05-20T05:03:06.643584,12.42889960,.00163379,82.4921,49.5391,49.4410,310.8089,0,U,40553,999,50525,-.28268258E-3,-.29E-6,0
GONETS-M 13,2015-020C,2026-05-20T06:20:09.612960,12.42868942,.00147802,82.4884,48.1289,35.3932,324.8125,0,U,40554,999,50523,.9470639E-5,.11E-6,0
DMC3-FM1,2015-032A,2026-05-20T06:08:02.231232,14.85704098,.00065133,97.6490,6.5213,133.3339,226.8421,0,U,40715,999,58576,.93961673E-4,.764E-5,0
DMC3-FM2,2015-032B,2026-05-20T06:39:55.931616,14.85708270,.0006841,97.6547,8.0971,138.3870,221.7867,0,U,40716,999,58576,.30070248E-4,.21E-5,0
DMC3-FM3,2015-032C,2026-05-20T05:36:16.008768,14.85695641,.00059901,97.6597,9.7897,137.4299,222.7382,0,U,40717,999,58576,-.20656097E-4,-.231E-5,0
CARBONITE 1 (CBNT-1),2015-032D,2026-05-20T06:13:11.925120,14.83491190,.00152854,97.6498,319.4988,31.7507,328.4626,0,U,40718,999,58520,.15242586E-3,.1205E-4,0
LILACSAT-2,2015-049K,2026-05-20T08:03:11.314368,15.50436012,.00067829,97.4675,176.1350,12.6833,347.4587,0,U,40908,999,59143,.23393573E-3,.13231E-3,0
